[{"OBJECT_NAME":"CONTINUUM-1","OBJECT_ID":"2023-001AN","EPOCH":"2026-03-09T23:17:35.458656","MEAN_MOTION":15.27981258,"ECCENTRICITY":0.00109493,"INCLINATION":97.3456,"RA_OF_ASC_NODE":133.3964,"ARG_OF_PERICENTER":60.1976,"MEAN_ANOMALY":300.0351,"EPHEMERIS_TYPE":0,"CLASSIFICATION_TYPE":"U","NORAD_CAT_ID":55045,"ELEMENT_SET_NO":999,"REV_AT_EPOCH":17709,"BSTAR":0.00052859897,"MEAN_MOTION_DOT":0.00014395,"MEAN_MOTION_DDOT":0},{"OBJECT_NAME":"STARLINK-36269","OBJECT_ID":"2026-008AD","EPOCH":"2026-03-09T09:18:32.952960","MEAN_MOTION":15.27599674,"ECCENTRICITY":9.872e-5,"INCLINATION":43.0007,"RA_OF_ASC_NODE":207.1226,"ARG_OF_PERICENTER":223.7297,"MEAN_ANOMALY":136.3477,"EPHEMERIS_TYPE":0,"CLASSIFICATION_TYPE":"U","NORAD_CAT_ID":67472,"ELEMENT_SET_NO":999,"REV_AT_EPOCH":952,"BSTAR":0.0012919086,"MEAN_MOTION_DOT":0.00035481,"MEAN_MOTION_DDOT":0}]
